{
  "type": "FeatureCollection",
  "features": [
    {
      "type": "Feature",
      "properties": {
        "norad_id": 40730,
        "name": "GPS BIIF-10 (PRN 08)",
        "group": "gps-ops",
        "lat": 53.80263113370673,
        "lon": 14.246358226524936,
        "alt_km": 20067.11181854792,
        "timestamp": "2025-12-06T09:34:17.172765+00:00",
        "meta_object_name": "GPS BIIF-10 (PRN 08)",
        "meta_object_id": "2015-033A",
        "meta_epoch": "2025-12-05T06:31:35.095008",
        "meta_mean_motion": 2.00565806,
        "meta_eccentricity": 0.0110509,
        "meta_inclination": 54.1373,
        "meta_ra_of_asc_node": 275.0802,
        "meta_arg_of_pericenter": 26.625,
        "meta_mean_anomaly": 333.9439,
        "meta_ephemeris_type": 0,
        "meta_classification_type": "U",
        "meta_norad_cat_id": 40730,
        "meta_element_set_no": 999,
        "meta_rev_at_epoch": 7610,
        "meta_bstar": 0,
        "meta_mean_motion_dot": -3e-07,
        "meta_mean_motion_ddot": 0,
        "tle_line1": "1 40730U 15033A   25339.27193397 -.00000030  00000+0  00000+0 0  9991",
        "tle_line2": "2 40730  54.1373 275.0802 0110509  26.6250 333.9439  2.00565806 76100"
      },
      "geometry": {
        "type": "Point",
        "coordinates": [
          14.246358226524936,
          53.80263113370673
        ]
      }
    },
    {
      "type": "Feature",
      "properties": {
        "norad_id": 41019,
        "name": "GPS BIIF-11 (PRN 10)",
        "group": "gps-ops",
        "lat": 39.7690322348368,
        "lon": 71.21345112304871,
        "alt_km": 20471.550421669683,
        "timestamp": "2025-12-06T09:34:17.172776+00:00",
        "meta_object_name": "GPS BIIF-11 (PRN 10)",
        "meta_object_id": "2015-062A",
        "meta_epoch": "2025-12-04T19:59:07.703520",
        "meta_mean_motion": 2.0056698,
        "meta_eccentricity": 0.0110602,
        "meta_inclination": 56.8265,
        "meta_ra_of_asc_node": 38.3083,
        "meta_arg_of_pericenter": 229.7198,
        "meta_mean_anomaly": 129.3626,
        "meta_ephemeris_type": 0,
        "meta_classification_type": "U",
        "meta_norad_cat_id": 41019,
        "meta_element_set_no": 999,
        "meta_rev_at_epoch": 7393,
        "meta_bstar": 0,
        "meta_mean_motion_dot": -6.6e-07,
        "meta_mean_motion_ddot": 0,
        "tle_line1": "1 41019U 15062A   25338.83272805 -.00000066  00000+0  00000+0 0  9996",
        "tle_line2": "2 41019  56.8265  38.3083 0110602 229.7198 129.3626  2.00566980 73939"
      },
      "geometry": {
        "type": "Point",
        "coordinates": [
          71.21345112304871,
          39.7690322348368
        ]
      }
    },
    {
      "type": "Feature",
      "properties": {
        "norad_id": 41328,
        "name": "GPS BIIF-12 (PRN 32)",
        "group": "gps-ops",
        "lat": -7.073052833221658,
        "lon": 92.1917954841148,
        "alt_km": 20257.245589974635,
        "timestamp": "2025-12-06T09:34:17.172787+00:00",
        "meta_object_name": "GPS BIIF-12 (PRN 32)",
        "meta_object_id": "2016-007A",
        "meta_epoch": "2025-12-05T09:55:37.612128",
        "meta_mean_motion": 2.00560998,
        "meta_eccentricity": 0.00917952,
        "meta_inclination": 55.402,
        "meta_ra_of_asc_node": 97.1478,
        "meta_arg_of_pericenter": 243.3887,
        "meta_mean_anomaly": 115.6411,
        "meta_ephemeris_type": 0,
        "meta_classification_type": "U",
        "meta_norad_cat_id": 41328,
        "meta_element_set_no": 999,
        "meta_rev_at_epoch": 7195,
        "meta_bstar": 0,
        "meta_mean_motion_dot": -1.1e-07,
        "meta_mean_motion_ddot": 0,
        "tle_line1": "1 41328U 16007A   25339.41362977 -.00000011  00000+0  00000+0 0  9994",
        "tle_line2": "2 41328  55.4020  97.1478 0091795 243.3887 115.6411  2.00560998 71958"
      },
      "geometry": {
        "type": "Point",
        "coordinates": [
          92.1917954841148,
          -7.073052833221658
        ]
      }
    },
    {
      "type": "Feature",
      "properties": {
        "norad_id": 43873,
        "name": "GPS BIII-1  (PRN 04)",
        "group": "gps-ops",
        "lat": -48.67865469013349,
        "lon": -28.992432013229983,
        "alt_km": 20126.149737652955,
        "timestamp": "2025-12-06T09:34:17.172802+00:00",
        "meta_object_name": "GPS BIII-1  (PRN 04)",
        "meta_object_id": "2018-109A",
        "meta_epoch": "2025-12-05T19:33:38.688768",
        "meta_mean_motion": 2.00553202,
        "meta_eccentricity": 0.00371699,
        "meta_inclination": 55.5633,
        "meta_ra_of_asc_node": 99.8204,
        "meta_arg_of_pericenter": 194.6796,
        "meta_mean_anomaly": 348.9989,
        "meta_ephemeris_type": 0,
        "meta_classification_type": "U",
        "meta_norad_cat_id": 43873,
        "meta_element_set_no": 999,
        "meta_rev_at_epoch": 5119,
        "meta_bstar": 0,
        "meta_mean_motion_dot": -6e-08,
        "meta_mean_motion_ddot": 0,
        "tle_line1": "1 43873U 18109A   25339.81503112 -.00000006  00000+0  00000+0 0  9992",
        "tle_line2": "2 43873  55.5633  99.8204 0037169 194.6796 348.9989  2.00553202 51199"
      },
      "geometry": {
        "type": "Point",
        "coordinates": [
          -28.992432013229983,
          -48.67865469013349
        ]
      }
    },
    {
      "type": "Feature",
      "properties": {
        "norad_id": 44506,
        "name": "GPS BIII-2  (PRN 18)",
        "group": "gps-ops",
        "lat": 31.05939896077899,
        "lon": 134.5465619759764,
        "alt_km": 20094.679089090903,
        "timestamp": "2025-12-06T09:34:17.172816+00:00",
        "meta_object_name": "GPS BIII-2  (PRN 18)",
        "meta_object_id": "2019-056A",
        "meta_epoch": "2025-12-05T10:37:28.856640",
        "meta_mean_motion": 2.00565628,
        "meta_eccentricity": 0.00578088,
        "meta_inclination": 55.7239,
        "meta_ra_of_asc_node": 338.8423,
        "meta_arg_of_pericenter": 198.4648,
        "meta_mean_anomaly": 333.0445,
        "meta_ephemeris_type": 0,
        "meta_classification_type": "U",
        "meta_norad_cat_id": 44506,
        "meta_element_set_no": 999,
        "meta_rev_at_epoch": 4618,
        "meta_bstar": 0,
        "meta_mean_motion_dot": -7.6e-07,
        "meta_mean_motion_ddot": 0,
        "tle_line1": "1 44506U 19056A   25339.44269510 -.00000076  00000+0  00000+0 0  9995",
        "tle_line2": "2 44506  55.7239 338.8423 0057808 198.4648 333.0445  2.00565628 46186"
      },
      "geometry": {
        "type": "Point",
        "coordinates": [
          134.5465619759764,
          31.05939896077899
        ]
      }
    },
    {
      "type": "Feature",
      "properties": {
        "norad_id": 45854,
        "name": "GPS BIII-3  (PRN 23)",
        "group": "gps-ops",
        "lat": 56.27323999266018,
        "lon": 118.16912913500876,
        "alt_km": 20249.98335471907,
        "timestamp": "2025-12-06T09:34:17.172827+00:00",
        "meta_object_name": "GPS BIII-3  (PRN 23)",
        "meta_object_id": "2020-041A",
        "meta_epoch": "2025-12-05T00:44:21.679872",
        "meta_mean_motion": 2.00561656,
        "meta_eccentricity": 0.00602963,
        "meta_inclination": 56.5415,
        "meta_ra_of_asc_node": 36.4861,
        "meta_arg_of_pericenter": 203.0901,
        "meta_mean_anomaly": 335.2174,
        "meta_ephemeris_type": 0,
        "meta_classification_type": "U",
        "meta_norad_cat_id": 45854,
        "meta_element_set_no": 999,
        "meta_rev_at_epoch": 4014,
        "meta_bstar": 0,
        "meta_mean_motion_dot": -6.7e-07,
        "meta_mean_motion_ddot": 0,
        "tle_line1": "1 45854U 20041A   25339.03080648 -.00000067  00000+0  00000+0 0  9996",
        "tle_line2": "2 45854  56.5415  36.4861 0060296 203.0901 335.2174  2.00561656 40145"
      },
      "geometry": {
        "type": "Point",
        "coordinates": [
          118.16912913500876,
          56.27323999266018
        ]
      }
    },
    {
      "type": "Feature",
      "properties": {
        "norad_id": 46826,
        "name": "GPS BIII-4  (PRN 14)",
        "group": "gps-ops",
        "lat": 42.37555543067252,
        "lon": -99.91278970173852,
        "alt_km": 20320.65514162035,
        "timestamp": "2025-12-06T09:34:17.172838+00:00",
        "meta_object_name": "GPS BIII-4  (PRN 14)",
        "meta_object_id": "2020-078A",
        "meta_epoch": "2025-11-12T03:01:29.191584",
        "meta_mean_motion": 2.00567032,
        "meta_eccentricity": 0.00639112,
        "meta_inclination": 54.0223,
        "meta_ra_of_asc_node": 219.5836,
        "meta_arg_of_pericenter": 203.4986,
        "meta_mean_anomaly": 326.7753,
        "meta_ephemeris_type": 0,
        "meta_classification_type": "U",
        "meta_norad_cat_id": 46826,
        "meta_element_set_no": 999,
        "meta_rev_at_epoch": 3715,
        "meta_bstar": 0,
        "meta_mean_motion_dot": -3.4e-07,
        "meta_mean_motion_ddot": 0,
        "tle_line1": "1 46826U 20078A   25316.12603231 -.00000034  00000+0  00000+0 0  9994",
        "tle_line2": "2 46826  54.0223 219.5836 0063911 203.4986 326.7753  2.00567032 37154"
      },
      "geometry": {
        "type": "Point",
        "coordinates": [
          -99.91278970173852,
          42.37555543067252
        ]
      }
    }
  ]
}